              M50 Cartesian                         J2K Cartesian  
    -----------------------------------       --------------------------------
     X    =        5108022.80                 X    =         1629285.37
     Y    =      -14121845.57  feet           Y    =        -4286523.86  meter
     Z    =      -16441644.17                 Z    =        -5003673.73
     XDOT =      24223.454015                 XDOT =        7369.230908
     YDOT =       1110.651090  feet/sec       YDOT =         421.013008  meter/sec
     ZDOT =       6580.862637                 ZDOT =        2041.679342
 
              TDR Cartesian                         TDR Cartesian  
    -----------------------------------       --------------------------------
     X    =       -1810749.74                 X    =         -551916.52
     Y    =      -14945634.86  feet           Y    =        -4555429.50  meter
     Z    =      -16407171.18                 Z    =        -5000905.78
     XDOT =      20930.031860                 XDOT =        6379.473711
     YDOT =      -9920.916798  feet/sec       YDOT =       -3023.895440  meter/sec
     ZDOT =       6736.447032                 ZDOT =        2053.269055
  
  
    The mean element set is posted at the UTC for which position is
    just north of the next ascending node relative to the above
    vector time
 
 
    TWO LINE MEAN ELEMENT SET
  
    ISS
    1 25544U 98067A   16110.51251979  .00016717  00000-0  10270-3 0  9016
    2 25544  51.6447 350.7055 0001708  37.8022 322.3250 15.54303054 35850
  
  
    Satellite: ISS
    Catalog Number: 25544
    Epoch time:      16110.51251979   =   yrday.fracday
    Element set:     901
    Inclination:       51.6447  deg
    RA of node:       350.7055  deg
    Eccentricity:     .0001708     
    Arg of perigee:    37.8022  deg
    Mean anomaly:     322.3250  deg
    Mean motion:   15.54303054  rev/day
    Decay rate:    1.67170E-04  rev/day^2
    Epoch rev:            3585
    Checksum:              280
 
 
    Coasting Arc #3 (Orbit 3600)
    ---------------------------------------
 
    Vector Time (GMT): 2016/111/12:00:00.000
    Vector Time (MET): N/A
    Weight (LBS)     : 945238.6
 
              M50 Cartesian                         M50 Keplerian  
    -----------------------------------       --------------------------------
     X    =       -3270282.63                 A    =         6781520.71  meter
     Y    =        4259807.27  meter          E    =           .0011927
     Z    =        4134028.95                 I    =           51.54999
     XDOT =      -6545.189813                 Wp   =           70.78656
     YDOT =      -1360.342205  meter/sec      RA   =          345.19149  deg
     ZDOT =      -3763.214697                 TA   =           58.05448
                                              MA   =           57.93856
                                              Ha   =            221.177  n.mi
                                              Hp   =            213.929
 
              M50 Cartesian                         J2K Cartesian  
    -----------------------------------       --------------------------------
     X    =      -10729273.70                 X    =        -3337755.41
     Y    =       13975745.65  feet           Y    =         4222859.91  meter
     Z    =       13563087.11                 Z    =         4117978.24
     XDOT =     -21473.719859                 XDOT =       -6511.211341
     YDOT =      -4463.064976  feet/sec       YDOT =       -1433.345232  meter/sec
     ZDOT =     -12346.504911                 ZDOT =       -3794.927374
 
              TDR Cartesian                         TDR Cartesian  
    -----------------------------------       --------------------------------
     X    =       -2941159.30                 X    =         -896465.36
     Y    =       17426917.38  feet           Y    =         5311724.42  meter
     Z    =       13492525.53                 Z    =         4112521.78
     XDOT =     -19698.037181                 XDOT =       -6003.961733
     YDOT =       6373.553313  feet/sec       YDOT =        1942.659050  meter/sec
     ZDOT =     -12483.979857                 ZDOT =       -3805.117060
  
  
    The mean element set is posted at the UTC for which position is
    just north of the next ascending node relative to the above
    vector time
 
 
    TWO LINE MEAN ELEMENT SET
  
    ISS
    1 25544U 98067A   16111.54124134  .00016717  00000-0  10270-3 0  9023
    2 25544  51.6440 345.5768 0001763  38.1276 322.0001 15.54344890 36015
  
  
    Satellite: ISS
    Catalog Number: 25544
    Epoch time:      16111.54124134   =   yrday.fracday
    Element set:     902
    Inclination:       51.6440  deg
    RA of node:       345.5768  deg
    Eccentricity:     .0001763     
    Arg of perigee:    38.1276  deg
    Mean anomaly:     322.0001  deg
    Mean motion:   15.54344890  rev/day
    Decay rate:    1.67170E-04  rev/day^2
    Epoch rev:            3601
    Checksum:              272
 
 
    Coasting Arc #4 (Orbit 3615)
    ---------------------------------------
 
    Vector Time (GMT): 2016/112/12:00:00.000
    Vector Time (MET): N/A
    Weight (LBS)     : 945238.6
 
              M50 Cartesian                         M50 Keplerian  
    -----------------------------------       --------------------------------
     X    =        4648320.75                 A    =         6785484.18  meter
     Y    =       -4057378.65  meter          E    =           .0006288
     Z    =       -2823029.25                 I    =           51.53189
     XDOT =       5197.123317                 Wp   =           53.88162
     YDOT =       2423.580799  meter/sec      RA   =          340.20028  deg
     ZDOT =       5085.718035                 TA   =          274.01863
                                              MA   =          274.09051
                                              Ha   =            221.164  n.mi
                                              Hp   =            214.036
 
              M50 Cartesian                         J2K Cartesian  
    -----------------------------------       --------------------------------
     X    =       15250396.18                 X    =         4707059.19
     Y    =      -13311609.76  feet           Y    =        -4005069.84  meter
     Z    =       -9261906.99                 Z    =        -2800305.50
     XDOT =      17050.929518                 XDOT =        5144.931323
     YDOT =       7951.380575  feet/sec       YDOT =        2481.407073  meter/sec
     ZDOT =      16685.426625                 ZDOT =        5110.837819
 
              TDR Cartesian                         TDR Cartesian  
    -----------------------------------       --------------------------------
     X    =        6889162.93                 X    =         2099816.86
     Y    =      -19082614.19  feet           Y    =        -5816380.80  meter
     Z    =       -9162408.46                 Z    =        -2792702.10
     XDOT =      17279.855624                 XDOT =        5266.899994
     YDOT =      -1806.830781  feet/sec       YDOT =        -550.722022  meter/sec
     ZDOT =      16794.046081                 ZDOT =        5118.825245
  
  
    The mean element set is posted at the UTC for which position is
    just north of the next ascending node relative to the above
    vector time
 
 
    TWO LINE MEAN ELEMENT SET
  
    ISS
    1 25544U 98067A   16112.50565980  .00016717  00000-0  10270-3 0  9039
    2 25544  51.6437 340.7681 0001640  38.4789 321.6480 15.54312224 36166
  
  
    Satellite: ISS
    Catalog Number: 25544
    Epoch time:      16112.50565980   =   yrday.fracday
    Element set:     903
    Inclination:       51.6437  deg
    RA of node:       340.7681  deg
    Eccentricity:     .0001640     
    Arg of perigee:    38.4789  deg
    Mean anomaly:     321.6480  deg
    Mean motion:   15.54312224  rev/day
    Decay rate:    1.67170E-04  rev/day^2
    Epoch rev:            3616
    Checksum:              299
 
 
    Coasting Arc #5 (Orbit 3631)
    ---------------------------------------
 
    Vector Time (GMT): 2016/113/12:00:00.000
    Vector Time (MET): N/A
    Weight (LBS)     : 945238.6
 
              M50 Cartesian                         M50 Keplerian  
    -----------------------------------       --------------------------------
     X    =       -5624318.05                 A    =         6788246.72  meter
     Y    =        3609587.65  meter          E    =           .0014154
     Z    =        1156419.97                 I    =           51.51150
     XDOT =      -3476.718299                 Wp   =          115.70884
     YDOT =      -3524.659301  meter/sec      RA   =          335.21652  deg
     ZDOT =      -5857.617047                 TA   =           51.70931
                                              MA   =           51.58209
                                              Ha   =            221.191  n.mi
                                              Hp   =            213.936
 
              M50 Cartesian                         J2K Cartesian  
    -----------------------------------       --------------------------------
     X    =      -18452487.03                 X    =        -5669880.84
     Y    =       11842479.17  feet           Y    =         3546438.10  meter
     Z    =        3794028.76                 Z    =         1128987.02
     XDOT =     -11406.556099                 XDOT =       -3408.591960
     YDOT =     -11563.842850  feet/sec       YDOT =       -3563.157739  meter/sec
     ZDOT =     -19217.903698                 ZDOT =       -5874.340692
 
